OBJECT_NAME,OBJECT_ID,EPOCH,MEAN_MOTION,ECCENTRICITY,INCLINATION,RA_OF_ASC_NODE,ARG_OF_PERICENTER,MEAN_ANOMALY,EPHEMERIS_TYPE,CLASSIFICATION_TYPE,NORAD_CAT_ID,ELEMENT_SET_NO,REV_AT_EPOCH,BSTAR,MEAN_MOTION_DOT,MEAN_MOTION_DDOT
GSAT0207 (GALILEO 15),2016-069A,2026-06-05T14:24:23.946624,1.70473771,.00054837,55.4919,101.4069,326.6473,33.2866,0,U,41859,999,5920,0,.19E-6,0
GSAT0212 (GALILEO 16),2016-069B,2026-06-06T00:58:02.680320,1.70473908,.00046811,55.4899,101.3899,354.1097,5.8552,0,U,41860,999,5946,0,.21E-6,0
GSAT0213 (GALILEO 17),2016-069C,2026-06-05T05:37:31.460160,1.70474348,.00052095,55.4909,101.4200,311.1245,48.7972,0,U,41861,999,5931,0,.17E-6,0
GSAT0214 (GALILEO 18),2016-069D,2026-06-06T13:17:24.821664,1.70473962,.00043106,55.4911,101.3760,318.2994,41.6400,0,U,41862,999,5946,0,.23E-6,0
GOES 16,2016-071A,2026-06-07T04:33:38.610144,1.00270876,.00005193,0.3142,85.6275,316.9738,176.7445,0,U,41866,999,3500,0,-.77E-6,0
TIANLIAN 1-04,2016-072A,2026-06-07T05:42:45.162144,1.00269206,.00418272,0.8435,82.9555,89.7739,345.4327,0,U,41869,999,3520,0,.45E-6,0
GOKTURK 1A,2016-073A,2026-06-07T06:12:34.454304,14.62767454,.00014579,98.1257,53.0884,77.1178,283.0187,0,U,41875,999,50737,.85794723E-4,.391E-5,0
RESOURCESAT-2A,2016-074A,2026-06-07T06:54:14.889312,14.21612848,.00033313,98.7521,231.8729,101.8940,258.2611,0,U,41877,999,49289,.4399469E-5,-.35E-6,0
WGS F8 (USA 272),2016-075A,2026-06-07T04:24:38.649888,1.00269917,.00001569,0.0109,79.4650,257.2308,134.8776,0,U,41879,999,3472,0,-.188E-5,0
FENGYUN 4A,2016-077A,2026-06-07T05:05:38.707584,1.00274846,.00082103,2.2969,80.3901,151.5662,223.8374,0,U,41882,999,3483,0,-.342E-5,0
CYGFM05,2016-078A,2026-06-07T04:10:04.256832,15.56221382,.00070527,34.9577,326.8764,47.5364,312.5956,0,U,41884,999,52719,.34746607E-3,.25237E-3,0
CYGFM04,2016-078B,2026-06-06T18:59:30.886080,15.60924335,.00060044,34.9328,297.6136,90.3195,269.8218,0,U,41885,999,52737,.3861548E-3,.33565E-3,0
CYGFM02,2016-078C,2026-06-06T17:56:48.592032,15.63814591,.00069588,34.9411,292.7401,91.2851,268.8673,0,U,41886,999,52753,.43527328E-3,.42435E-3,0
CYGFM01,2016-078D,2026-06-07T04:00:02.526624,15.56882001,.00069709,34.9408,328.0607,40.7680,319.3565,0,U,41887,999,52714,.34390139E-3,.25604E-3,0
CYGFM08,2016-078E,2026-06-06T19:45:15.298272,15.59466369,.00079226,34.9438,310.1862,71.9711,288.1877,0,U,41888,999,52735,.38066568E-3,.31293E-3,0
CYGFM07,2016-078G,2026-06-07T02:28:15.121920,15.59586778,.00063598,34.9451,296.6759,92.9078,267.2375,0,U,41890,999,52742,.37205547E-3,.30707E-3,0
CYGFM03,2016-078H,2026-06-07T01:46:25.336704,15.59579007,.00059539,34.9406,298.8090,78.4832,281.6562,0,U,41891,999,52739,.36549967E-3,.3015E-3,0
ECHOSTAR 19,2016-079A,2026-06-07T05:36:39.875904,1.00271490,.00014,0.0178,0.7365,83.5127,158.4737,0,U,41893,999,3460,0,-.124E-5,0
ARASE (ERG),2016-080A,2026-06-05T16:58:30.851328,2.57684358,.69913878,31.9519,12.8525,40.4561,354.6377,0,U,41896,999,8798,.17785476E-2,.795E-5,0
TANSAT,2016-081A,2026-06-07T05:48:52.092576,14.59942742,.00203084,98.5367,158.2065,343.9810,16.0744,0,U,41898,999,50317,.8967931E-4,.38E-5,0
YIJIAN,2016-081B,2026-06-07T06:22:41.958624,14.60754426,.00205199,98.5373,155.8569,343.2731,16.7789,0,U,41899,999,50314,.16169208E-3,.74E-5,0
SPARK 1,2016-081C,2026-06-06T19:04:29.957952,14.59778053,.00235429,98.5482,151.9566,355.4292,4.6688,0,U,41900,999,50275,.1573822E-3,.703E-5,0
SPARK 2,2016-081D,2026-06-07T06:13:23.767104,14.59154549,.00252635,98.5486,147.7372,358.0920,2.0179,0,U,41901,999,50267,.15386324E-3,.677E-5,0
JCSAT-110A (JCSAT-15),2016-082A,2026-06-07T03:41:38.911776,1.00270095,.00006734,0.0174,350.4485,103.0041,327.5866,0,U,41903,999,3465,0,-.337E-5,0
STAR ONE D1,2016-082B,2026-06-07T05:30:26.727264,1.00269521,.00021219,0.0153,45.4215,44.0787,164.7260,0,U,41904,999,3467,0,-.196E-5,0
TJS-2,2017-001A,2026-06-07T03:13:38.943264,1.00272589,.00007157,0.8065,85.4701,18.6342,266.3914,0,U,41911,999,3461,0,.8E-7,0
JILIN-1 03,2017-002B,2026-06-07T06:55:19.236576,15.41333103,.00054857,97.1952,165.5143,186.2268,173.8912,0,U,41914,999,52033,.32109357E-3,.13317E-3,0
IRIDIUM 106,2017-003A,2026-06-07T01:10:18.218208,14.34217724,.00019132,86.3960,92.7941,80.4007,279.7405,0,U,41917,999,49175,.8630836E-5,.44E-6,0
IRIDIUM 103,2017-003B,2026-06-06T13:08:46.226400,14.34215513,.0002545,86.3951,92.9039,81.7381,278.4103,0,U,41918,999,49170,-.28133E-3,-.768E-5,0
IRIDIUM 109,2017-003C,2026-06-07T02:41:38.321376,14.34217688,.0002308,86.3963,92.7269,84.1566,275.9893,0,U,41919,999,49175,.7906335E-5,.42E-6,0
IRIDIUM 102,2017-003D,2026-06-07T01:55:58.261152,14.34217544,.00022712,86.3957,92.6638,86.1775,273.9681,0,U,41920,999,49183,.41480781E-4,.136E-5,0
IRIDIUM 105,2017-003E,2026-06-06T23:15:53.557632,14.34225790,.00024568,86.3970,61.1418,86.0794,274.0683,0,U,41921,999,49367,.89215176E-4,.27E-5,0
IRIDIUM 104,2017-003F,2026-06-06T04:28:10.332480,14.34217797,.00025141,86.3961,93.0801,84.3189,275.8294,0,U,41922,999,49169,.18128451E-4,.71E-6,0
IRIDIUM 114,2017-003G,2026-06-07T02:23:22.275168,14.34218039,.00024102,86.3959,92.6814,83.9444,276.2026,0,U,41923,999,49180,.22962948E-4,.84E-6,0
IRIDIUM 108,2017-003H,2026-06-06T10:19:26.470272,14.34216113,.00022073,86.3965,61.2582,89.0971,271.0478,0,U,41924,999,49356,-.1563769E-3,-.418E-5,0
IRIDIUM 112,2017-003J,2026-06-07T02:05:06.025920,14.34218802,.00024115,86.3957,92.5297,87.8524,272.2948,0,U,41925,999,49182,.29932673E-4,.104E-5,0
IRIDIUM 111,2017-003K,2026-06-06T12:23:06.278496,14.34217646,.00022025,86.3958,92.8384,83.5148,276.6298,0,U,41926,999,49172,-.689454E-6,.18E-6,0
SBIRS GEO-4 (USA 273),2017-004A,2026-06-07T04:58:19.486272,1.00272508,.00022718,2.2233,42.9927,31.1548,276.9545,0,U,41937,999,3449,0,.137E-5,0
HISPASAT 36W-1,2017-006A,2026-06-07T04:42:06.040800,1.00273833,.00012023,0.0112,281.2905,152.4537,216.3903,0,U,41942,999,3414,0,-.23E-5,0
TELKOM 3S,2017-007A,2026-06-07T03:41:38.911776,1.00271157,.00023674,0.0181,298.7717,139.7139,350.5075,0,U,41944,999,3403,0,-.348E-5,0
INTELSAT 32E (IS-32E),2017-007B,2026-06-07T04:39:58.745088,1.00270129,.00003392,0.0180,333.1409,344.1070,325.1747,0,U,41945,999,3412,0,-.255E-5,0
CARTOSAT-2D,2017-008A,2026-06-07T05:07:00.765120,15.19255456,.0003674,97.4121,217.7045,275.5836,84.4979,0,U,41948,999,51606,-.9931E-4,-.2158E-4,0
SENTINEL-2B,2017-013A,2026-06-07T06:39:28.109088,14.30814227,.00012112,98.5687,233.1914,85.7310,274.4011,0,U,42063,999,48322,.52655553E-4,.94E-6,0
ECHOSTAR 23,2017-014A,2026-06-07T06:03:34.691040,1.00268370,.00017364,0.0177,343.1916,97.6783,155.7867,0,U,42070,999,3382,0,0,0
WGS F9 (USA 275),2017-016A,2026-06-07T04:48:50.395392,1.00272158,.00005134,0.0104,279.9392,174.5632,221.3258,0,U,42075,999,3379,0,-.82E-6,0
SES-10,2017-017A,2026-06-07T05:14:38.610816,1.00270476,.00029159,0.0203,30.7938,58.1045,178.4997,0,U,42432,999,3365,0,-.258E-5,0
CHINASAT 16 (SJ-13),2017-018A,2026-06-05T19:10:33.910176,1.00273863,.00037744,0.1016,92.2536,134.9826,65.1567,0,U,42662,999,3363,0,-.34E-5,0
KOREASAT 7,2017-023A,2026-06-07T03:41:38.911776,1.00272508,.00005459,0.0190,341.4566,67.1942,18.2090,0,U,42691,999,3326,0,-.348E-5,0
SGDC,2017-023B,2026-06-06T11:59:52.764000,1.00274102,.0002927,0.0213,51.3876,34.5594,274.0931,0,U,42692,999,3329,0,-.237E-5,0
GSAT-9,2017-024A,2026-06-07T02:52:21.429408,1.00273313,.00025303,0.0140,294.8075,136.6411,324.5070,0,U,42695,999,3319,0,-.273E-5,0
INMARSAT 5-F4,2017-025A,2026-06-07T03:40:38.775648,1.00278401,.00003485,0.0175,351.1177,189.7273,186.3563,0,U,42698,999,3317,0,.88E-6,0
SES-15,2017-026A,2026-06-07T06:40:41.217312,1.00270666,.00006495,0.0211,327.3400,90.7057,168.6678,0,U,42709,999,733,0,.74E-6,0
COSMOS 2518,2017-027A,2026-06-05T03:28:41.222784,2.00855240,.69789841,63.0507,249.8401,273.6626,15.9408,0,U,42719,999,6616,0,-.105E-4,0
QZS-2 (MICHIBIKI-2),2017-028A,2026-06-06T12:59:41.129664,1.00286802,.0760531,39.4434,243.3115,269.1455,78.6569,0,U,42738,999,751,0,-.152E-5,0
VIASAT-2,2017-029A,2026-06-07T06:25:58.726848,1.00271520,.00002899,0.0180,290.9133,145.7257,205.6477,0,U,42740,999,3310,0,-.251E-5,0
EUTELSAT 172B,2017-029B,2026-06-07T05:55:05.281824,1.00271166,.00000698,0.0146,92.5633,36.2399,27.6255,0,U,42741,999,3364,0,.8E-7,0
GSAT-19,2017-031A,2026-06-07T05:05:56.257152,1.00270994,.00070051,0.1068,90.9603,349.5286,299.4772,0,U,42747,999,3304,0,.14E-5,0
ECHOSTAR 21,2017-032A,2026-06-07T04:55:12.285120,1.00270801,.00023631,1.7719,355.0214,85.1987,259.4644,0,U,42749,999,3299,0,.78E-6,0
HXMT (HUIYAN),2017-034A,2026-06-07T06:24:58.377312,15.18405128,.00301751,43.0130,238.2760,81.6094,278.8173,0,U,42758,999,49615,.25010583E-3,.5057E-4,0
CARTOSAT-2E,2017-036C,2026-06-07T05:32:20.318208,15.19247949,.00032413,97.4277,218.1973,1.8587,358.2659,0,U,42767,999,49663,.28501547E-3,.594E-4,0
BULGARIASAT-1,2017-038A,2026-06-07T01:53:38.789952,1.00268431,.00036642,0.0251,278.3566,172.0623,195.3752,0,U,42801,999,3274,0,.25E-6,0
IRIDIUM 113,2017-039A,2026-06-07T04:38:55.201344,14.34217808,.00023092,86.3962,326.3575,90.4468,269.6992,0,U,42803,999,46975,.58582586E-4,.184E-5,0
IRIDIUM 123,2017-039B,2026-06-06T19:35:50.887680,14.34217840,.00021027,86.3974,357.9735,83.2289,276.9146,0,U,42804,999,46846,.21978427E-4,.81E-6,0
IRIDIUM 120,2017-039C,2026-06-07T04:29:45.891744,14.34223616,.0002024,86.3953,326.1439,93.5603,266.5824,0,U,42805,999,46974,.99742914E-4,.299E-5,0
IRIDIUM 115,2017-039D,2026-06-07T04:54:08.275680,14.43279284,.0002046,86.4492,326.2641,86.4992,273.6443,0,U,42806,999,47282,.1224922E-3,.432E-5,0
IRIDIUM 118,2017-039E,2026-06-06T20:21:30.968640,14.34217352,.00020877,86.3970,357.9583,87.9520,272.1915,0,U,42807,999,46846,-.7598706E-5,-.2E-7,0
IRIDIUM 117,2017-039F,2026-06-07T06:51:42.950592,14.34217377,.00020822,86.3968,357.7330,86.0884,274.0550,0,U,42808,999,46855,-.9219265E-5,-.6E-7,0
IRIDIUM 126,2017-039G,2026-06-06T19:44:58.821792,14.34217562,.00022677,86.3974,357.9776,85.0876,275.0578,0,U,42809,999,46846,.28919865E-4,.101E-5,0
